{"type":"FeatureCollection","features":[{"type":"Feature","properties":{},"geometry":{"type":"Polygon","coordinates":[[[-42.826095,-22.634267],[-42.831911,-22.445228],[-42.897746,-22.34251],[-43.017071,-22.268278],[-43.122045,-22.197947],[-43.735866,-22.247177],[-43.951111,-22.340756],[-44.371227,-22.299973],[-44.695302,-22.350228],[-45.066146,-22.537185],[-45.365432,-22.633599],[-45.453185,-22.554606],[-45.666266,-22.663217],[-45.807982,-22.824412],[-46.068208,-22.902329],[-46.191214,-22.855804],[-46.390012,-22.871499],[-46.688012,-22.812927],[-46.945262,-22.733574],[-47.0066,-22.69559],[-47.151041,-22.603101],[-47.338337,-22.620391],[-47.473457,-22.766033],[-47.510782,-23.101404],[-47.64139,-23.307579],[-47.67196,-23.387359],[-47.684548,-23.592687],[-47.468953,-23.648024],[-47.127104,-23.84027],[-47.142111,-23.892878],[-47.153664,-24.093694],[-47.150704,-24.253429],[-47.092028,-24.348838],[-46.922008,-24.309977],[-46.547541,-24.094277],[-46.236003,-24.109786],[-45.835244,-23.948785],[-45.392393,-23.967214],[-45.052566,-23.985225],[-44.966623,-23.744394],[-44.561794,-23.385342],[-44.26111,-23.248207],[-44.033986,-23.2209],[-43.575103,-23.096364],[-43.477637,-23.051091],[-43.30055,-23.022859],[-43.140974,-23.005709],[-42.971402,-22.978468],[-42.775516,-22.967471],[-42.797601,-22.733275],[-42.797197,-22.716686],[-42.823468,-22.694128],[-42.823266,-22.651799],[-42.826095,-22.634267]]]}}]}